[
    {
        "Altitude(m)": 565756.3132596371,
        "Argument of Periapsis(deg)": -0.037671934638287344,
        "Eccentricity": 0.0,
        "Inclination(deg)": 97.0,
        "Latitude(deg)": 15.790985427550133,
        "Longitude(deg)": 44.09241246339018,
        "Mean Anomaly(deg)": 15.971938781979143,
        "RAAN(deg)": 150.00991175603087,
        "Satellite Name": "Starlink Shell 3 1925",
        "Satellite Number": 1925,
        "Semi-Major Axis(m)": 6938478.169268562,
        "Time(s)": 950
    },
    {
        "Altitude(m)": 565783.5279100809,
        "Argument of Periapsis(deg)": -0.03806848131869037,
        "Eccentricity": 0.0,
        "Inclination(deg)": 97.0,
        "Latitude(deg)": 16.414752698923063,
        "Longitude(deg)": 43.968164333260106,
        "Mean Anomaly(deg)": 16.597414979684263,
        "RAAN(deg)": 150.01001609030487,
        "Satellite Name": "Starlink Shell 3 1925",
        "Satellite Number": 1925,
        "Semi-Major Axis(m)": 6938478.169268562,
        "Time(s)": 960
    },
    {
        "Altitude(m)": 565814.5968608394,
        "Argument of Periapsis(deg)": -0.0384650279990934,
        "Eccentricity": 0.0,
        "Inclination(deg)": 97.0,
        "Latitude(deg)": 17.03845456689784,
        "Longitude(deg)": 43.84338923591851,
        "Mean Anomaly(deg)": 17.222891177389258,
        "RAAN(deg)": 150.01012042457887,
        "Satellite Name": "Starlink Shell 3 1925",
        "Satellite Number": 1925,
        "Semi-Major Axis(m)": 6938478.169268562,
        "Time(s)": 970
    },
    {
        "Altitude(m)": 565849.4770661598,
        "Argument of Periapsis(deg)": -0.03886157467949641,
        "Eccentricity": 0.0,
        "Inclination(deg)": 97.0,
        "Latitude(deg)": 17.66208789168202,
        "Longitude(deg)": 43.71806230160953,
        "Mean Anomaly(deg)": 17.848367375094252,
        "RAAN(deg)": 150.0102247588529,
        "Satellite Name": "Starlink Shell 3 1925",
        "Satellite Number": 1925,
        "Semi-Major Axis(m)": 6938478.169268562,
        "Time(s)": 980
    },
    {
        "Altitude(m)": 565888.1237370654,
        "Argument of Periapsis(deg)": -0.03925812135989944,
        "Eccentricity": 0.0,
        "Inclination(deg)": 97.0,
        "Latitude(deg)": 18.285649519853788,
        "Longitude(deg)": 43.592158579812526,
        "Mean Anomaly(deg)": 18.473843572799375,
        "RAAN(deg)": 150.0103290931269,
        "Satellite Name": "Starlink Shell 3 1925",
        "Satellite Number": 1925,
        "Semi-Major Axis(m)": 6938478.169268562,
        "Time(s)": 990
    }
]